TEVEL2-2                
1 63219U 25052K   26068.64848259  .00020339  00000+0  69428-3 0  9991
2 63219  97.3987 324.7700 0004693 105.7930 254.3828 15.30343745 54855
STARLINK-34259          
1 65368U 25190T   26068.55938691  .00026664  00000+0  90949-3 0  9990
2 65368  53.1573 168.8942 0001178  78.0466 282.0667 15.30187783 29735
